KUIPER-00408            
1 68924U 26098F   26204.17271749  .00015551  00000+0  62103-3 0  9997
2 68924  51.8718 258.0770 0013158 287.7208  72.2337 15.25241526 12822
KUIPER-00409            
1 68925U 26098G   26204.25002315 -.00044244  00000+0 -46752-2 0  9992
2 68925  51.8981 258.7345 0004612 299.0468 239.3396 14.88868848  4685
KUIPER-00410            
1 68926U 26098H   26204.25002315 -.00182177  00000+0 -11108-1 0  9997
2 68926  51.8837 257.9925 0013239 274.4714  26.8438 15.10671755  4644
KUIPER-00412            
1 68927U 26098J   26204.25002315 -.01074083  00000+0 -37656-1 0  9991
2 68927  51.8804 253.0076 0003842  27.6140 202.5287 15.31735090  3474
KUIPER-00413            
1 68928U 26098K   26204.25002315 -.00042667  00000+0 -49215-2 0  9999
2 68928  51.8993 261.2839 0022271 291.1661 131.3516 14.85108590  4387
KUIPER-00414            
1 68929U 26098L   26203.91399039 -.00000979  00000+0 -99356-4 0  9997
2 68929  51.8965 272.7712 0001228 310.5857  49.4998 14.79937303 12596
KUIPER-00415            
1 68930U 26098M   26204.25002315 -.02304499  00000+0 -12643+0 0  9990
2 68930  51.8876 256.1943 0007888 274.9993 177.0246 15.17194324  3521
KUIPER-00416            
1 68931U 26098N   26204.12616722  .00037653  00000+0  10078-2 0  9994
2 68931  51.8729 253.3910 0001789  25.3568 334.7506 15.37666904 12882
KUIPER-00420            
1 68932U 26098P   26203.46464652  .00026463  00000+0  73043-3 0  9993
2 68932  51.8774 257.2183 0004696 344.4894  15.5948 15.36886836 12774
KUIPER-00421            
1 68933U 26098Q   26204.30627815 -.00284822  00000+0 -10350-1 0  9997
2 68933  51.8763 255.2980 0007878 279.0334  80.9758 15.28936759 12870
KUIPER-00425            
1 68934U 26098R   26204.25002315 -.00917960  00000+0 -84450-1 0  9992
2 68934  51.9009 259.2669 0011403 275.5068  75.7804 14.96914790  5418
KUIPER-00430            
1 68935U 26098S   26204.25002315 -.00045955  00000+0 -52882-2 0  9994
2 68935  51.8984 261.1643 0016926 280.5325 320.4224 14.85322562  4920
KUIPER-00431            
1 68936U 26098T   26204.00002315  .00033007  00000+0  43331-2 0  9990
2 68936  51.8983 264.7923 0000594  23.5776  31.5800 14.79974538  5558
KUIPER-00432            
1 68937U 26098U   26204.25002315 -.01117304  00000+0 -75968-1 0  9994
2 68937  51.8843 257.5499 0010511 280.6437 258.1033 15.08788150  4710
KUIPER-00434            
1 68938U 26098V   26204.25002315 -.00041825  00000+0 -48471-2 0  9998
2 68938  51.8991 258.9367 0002188 196.0840  61.6313 14.85100678  4617
KUIPER-00436            
1 68939U 26098W   26204.25002315 -.00041041  00000+0 -41298-2 0  9999
2 68939  51.8950 258.9638 0007886 277.1073 300.1187 14.90773949  3570
