{"fetched_at":"2026-07-23T17:55:06.836Z","source":"https://celestrak.org/NORAD/elements/gp.php?GROUP=kuiper&FORMAT=JSON","constellation":"kuiper","records":[{"OBJECT_NAME":"KUIPER-00408","OBJECT_ID":"2026-098F","EPOCH":"2026-07-23T04:08:42.791136","CLASSIFICATION_TYPE":"U","MEAN_MOTION":15.25241526,"ECCENTRICITY":0.00131581,"INCLINATION":51.8718,"RA_OF_ASC_NODE":258.077,"ARG_OF_PERICENTER":287.7208,"MEAN_ANOMALY":72.2337,"EPHEMERIS_TYPE":0,"NORAD_CAT_ID":68924,"ELEMENT_SET_NO":999,"REV_AT_EPOCH":1282,"BSTAR":0.00062103308,"MEAN_MOTION_DOT":0.00015551,"MEAN_MOTION_DDOT":0},{"OBJECT_NAME":"KUIPER-00409","OBJECT_ID":"2026-098G","EPOCH":"2026-07-23T06:00:02.000160","CLASSIFICATION_TYPE":"U","MEAN_MOTION":14.88868848,"ECCENTRICITY":0.00046127,"INCLINATION":51.8981,"RA_OF_ASC_NODE":258.7345,"ARG_OF_PERICENTER":299.0468,"MEAN_ANOMALY":239.3396,"EPHEMERIS_TYPE":0,"NORAD_CAT_ID":68925,"ELEMENT_SET_NO":999,"REV_AT_EPOCH":468,"BSTAR":-0.0046752006,"MEAN_MOTION_DOT":-0.00044244,"MEAN_MOTION_DDOT":0},{"OBJECT_NAME":"KUIPER-00410","OBJECT_ID":"2026-098H","EPOCH":"2026-07-23T06:00:02.000160","CLASSIFICATION_TYPE":"U","MEAN_MOTION":15.10671755,"ECCENTRICITY":0.00132393,"INCLINATION":51.8837,"RA_OF_ASC_NODE":257.9925,"ARG_OF_PERICENTER":274.4714,"MEAN_ANOMALY":26.8438,"EPHEMERIS_TYPE":0,"NORAD_CAT_ID":68926,"ELEMENT_SET_NO":999,"REV_AT_EPOCH":464,"BSTAR":-0.011107798,"MEAN_MOTION_DOT":-0.00182177,"MEAN_MOTION_DDOT":0},{"OBJECT_NAME":"KUIPER-00412","OBJECT_ID":"2026-098J","EPOCH":"2026-07-23T06:00:02.000160","CLASSIFICATION_TYPE":"U","MEAN_MOTION":15.3173509,"ECCENTRICITY":0.00038429,"INCLINATION":51.8804,"RA_OF_ASC_NODE":253.0076,"ARG_OF_PERICENTER":27.614,"MEAN_ANOMALY":202.5287,"EPHEMERIS_TYPE":0,"NORAD_CAT_ID":68927,"ELEMENT_SET_NO":999,"REV_AT_EPOCH":347,"BSTAR":-0.037655557,"MEAN_MOTION_DOT":-0.01074083,"MEAN_MOTION_DDOT":0},{"OBJECT_NAME":"KUIPER-00413","OBJECT_ID":"2026-098K","EPOCH":"2026-07-23T06:00:02.000160","CLASSIFICATION_TYPE":"U","MEAN_MOTION":14.8510859,"ECCENTRICITY":0.00222718,"INCLINATION":51.8993,"RA_OF_ASC_NODE":261.2839,"ARG_OF_PERICENTER":291.1661,"MEAN_ANOMALY":131.3516,"EPHEMERIS_TYPE":0,"NORAD_CAT_ID":68928,"ELEMENT_SET_NO":999,"REV_AT_EPOCH":438,"BSTAR":-0.0049214612,"MEAN_MOTION_DOT":-0.00042667,"MEAN_MOTION_DDOT":0},{"OBJECT_NAME":"KUIPER-00414","OBJECT_ID":"2026-098L","EPOCH":"2026-07-22T21:56:08.769696","CLASSIFICATION_TYPE":"U","MEAN_MOTION":14.79937303,"ECCENTRICITY":0.00012283,"INCLINATION":51.8965,"RA_OF_ASC_NODE":272.7712,"ARG_OF_PERICENTER":310.5857,"MEAN_ANOMALY":49.4998,"EPHEMERIS_TYPE":0,"NORAD_CAT_ID":68929,"ELEMENT_SET_NO":999,"REV_AT_EPOCH":1259,"BSTAR":-0.000099355571,"MEAN_MOTION_DOT":-0.00000979,"MEAN_MOTION_DDOT":0},{"OBJECT_NAME":"KUIPER-00415","OBJECT_ID":"2026-098M","EPOCH":"2026-07-23T06:00:02.000160","CLASSIFICATION_TYPE":"U","MEAN_MOTION":15.17194324,"ECCENTRICITY":0.00078882,"INCLINATION":51.8876,"RA_OF_ASC_NODE":256.1943,"ARG_OF_PERICENTER":274.9993,"MEAN_ANOMALY":177.0246,"EPHEMERIS_TYPE":0,"NORAD_CAT_ID":68930,"ELEMENT_SET_NO":999,"REV_AT_EPOCH":352,"BSTAR":-0.12643124,"MEAN_MOTION_DOT":-0.02304499,"MEAN_MOTION_DDOT":0},{"OBJECT_NAME":"KUIPER-00416","OBJECT_ID":"2026-098N","EPOCH":"2026-07-23T03:01:40.847808","CLASSIFICATION_TYPE":"U","MEAN_MOTION":15.37666904,"ECCENTRICITY":0.00017893,"INCLINATION":51.8729,"RA_OF_ASC_NODE":253.391,"ARG_OF_PERICENTER":25.3568,"MEAN_ANOMALY":334.7506,"EPHEMERIS_TYPE":0,"NORAD_CAT_ID":68931,"ELEMENT_SET_NO":999,"REV_AT_EPOCH":1288,"BSTAR":0.0010078211,"MEAN_MOTION_DOT":0.00037653,"MEAN_MOTION_DDOT":0},{"OBJECT_NAME":"KUIPER-00420","OBJECT_ID":"2026-098P","EPOCH":"2026-07-22T11:09:05.459328","CLASSIFICATION_TYPE":"U","MEAN_MOTION":15.36886836,"ECCENTRICITY":0.00046965,"INCLINATION":51.8774,"RA_OF_ASC_NODE":257.2183,"ARG_OF_PERICENTER":344.4894,"MEAN_ANOMALY":15.5948,"EPHEMERIS_TYPE":0,"NORAD_CAT_ID":68932,"ELEMENT_SET_NO":999,"REV_AT_EPOCH":1277,"BSTAR":0.00073042906,"MEAN_MOTION_DOT":0.00026463,"MEAN_MOTION_DDOT":0},{"OBJECT_NAME":"KUIPER-00421","OBJECT_ID":"2026-098Q","EPOCH":"2026-07-23T07:21:02.432160","CLASSIFICATION_TYPE":"U","MEAN_MOTION":15.28936759,"ECCENTRICITY":0.00078789,"INCLINATION":51.8763,"RA_OF_ASC_NODE":255.298,"ARG_OF_PERICENTER":279.0334,"MEAN_ANOMALY":80.9758,"EPHEMERIS_TYPE":0,"NORAD_CAT_ID":68933,"ELEMENT_SET_NO":999,"REV_AT_EPOCH":1287,"BSTAR":-0.010349599,"MEAN_MOTION_DOT":-0.00284822,"MEAN_MOTION_DDOT":0},{"OBJECT_NAME":"KUIPER-00425","OBJECT_ID":"2026-098R","EPOCH":"2026-07-23T06:00:02.000160","CLASSIFICATION_TYPE":"U","MEAN_MOTION":14.9691479,"ECCENTRICITY":0.00114035,"INCLINATION":51.9009,"RA_OF_ASC_NODE":259.2669,"ARG_OF_PERICENTER":275.5068,"MEAN_ANOMALY":75.7804,"EPHEMERIS_TYPE":0,"NORAD_CAT_ID":68934,"ELEMENT_SET_NO":999,"REV_AT_EPOCH":541,"BSTAR":-0.084449532,"MEAN_MOTION_DOT":-0.0091796,"MEAN_MOTION_DDOT":0},{"OBJECT_NAME":"KUIPER-00430","OBJECT_ID":"2026-098S","EPOCH":"2026-07-23T06:00:02.000160","CLASSIFICATION_TYPE":"U","MEAN_MOTION":14.85322562,"ECCENTRICITY":0.0016926,"INCLINATION":51.8984,"RA_OF_ASC_NODE":261.1643,"ARG_OF_PERICENTER":280.5325,"MEAN_ANOMALY":320.4224,"EPHEMERIS_TYPE":0,"NORAD_CAT_ID":68935,"ELEMENT_SET_NO":999,"REV_AT_EPOCH":492,"BSTAR":-0.0052881673,"MEAN_MOTION_DOT":-0.00045955,"MEAN_MOTION_DDOT":0},{"OBJECT_NAME":"KUIPER-00431","OBJECT_ID":"2026-098T","EPOCH":"2026-07-23T00:00:02.000160","CLASSIFICATION_TYPE":"U","MEAN_MOTION":14.79974538,"ECCENTRICITY":0.00005946,"INCLINATION":51.8983,"RA_OF_ASC_NODE":264.7923,"ARG_OF_PERICENTER":23.5776,"MEAN_ANOMALY":31.58,"EPHEMERIS_TYPE":0,"NORAD_CAT_ID":68936,"ELEMENT_SET_NO":999,"REV_AT_EPOCH":555,"BSTAR":0.0043331122,"MEAN_MOTION_DOT":0.00033007,"MEAN_MOTION_DDOT":0},{"OBJECT_NAME":"KUIPER-00432","OBJECT_ID":"2026-098U","EPOCH":"2026-07-23T06:00:02.000160","CLASSIFICATION_TYPE":"U","MEAN_MOTION":15.0878815,"ECCENTRICITY":0.00105113,"INCLINATION":51.8843,"RA_OF_ASC_NODE":257.5499,"ARG_OF_PERICENTER":280.6437,"MEAN_ANOMALY":258.1033,"EPHEMERIS_TYPE":0,"NORAD_CAT_ID":68937,"ELEMENT_SET_NO":999,"REV_AT_EPOCH":471,"BSTAR":-0.075968446,"MEAN_MOTION_DOT":-0.01117304,"MEAN_MOTION_DDOT":0},{"OBJECT_NAME":"KUIPER-00434","OBJECT_ID":"2026-098V","EPOCH":"2026-07-23T06:00:02.000160","CLASSIFICATION_TYPE":"U","MEAN_MOTION":14.85100678,"ECCENTRICITY":0.00021887,"INCLINATION":51.8991,"RA_OF_ASC_NODE":258.9367,"ARG_OF_PERICENTER":196.084,"MEAN_ANOMALY":61.6313,"EPHEMERIS_TYPE":0,"NORAD_CAT_ID":68938,"ELEMENT_SET_NO":999,"REV_AT_EPOCH":461,"BSTAR":-0.0048471451,"MEAN_MOTION_DOT":-0.00041825,"MEAN_MOTION_DDOT":0},{"OBJECT_NAME":"KUIPER-00436","OBJECT_ID":"2026-098W","EPOCH":"2026-07-23T06:00:02.000160","CLASSIFICATION_TYPE":"U","MEAN_MOTION":14.90773949,"ECCENTRICITY":0.00078863,"INCLINATION":51.895,"RA_OF_ASC_NODE":258.9638,"ARG_OF_PERICENTER":277.1073,"MEAN_ANOMALY":300.1187,"EPHEMERIS_TYPE":0,"NORAD_CAT_ID":68939,"ELEMENT_SET_NO":999,"REV_AT_EPOCH":357,"BSTAR":-0.0041297747,"MEAN_MOTION_DOT":-0.00041041,"MEAN_MOTION_DDOT":0}]}
